{"type": "FeatureCollection", "metadata": {"cycle_init": "2026-10-03T18:00:00Z", "product": "wind_gust_hazard_zones", "crs": "EPSG:4326", "tiers": [{"class": "wind_advisory", "min_mph": 46, "color": "#f1c40f"}, {"class": "high_wind_warning", "min_mph": 58, "color": "#e67e22"}, {"class": "damaging_wind", "min_mph": 70, "color": "#c0392b"}], "n_features": 31, "source": "live HRRR (NOAA NOMADS)"}, "features": [{"type": "Feature", "geometry": {"type": "Polygon", "coordinates": [[[-84.22047973425177, 29.363122999999675], [-84.22047973425177, 29.263122999999673], [-84.12047973425175, 29.263122999999673], [-84.12047973425175, 29.313122999999674], [-84.17047973425176, 29.313122999999674], [-84.17047973425176, 29.363122999999675], [-84.22047973425177, 29.363122999999675]]]}, "properties": {"hazard_class": "wind_advisory", "threshold_mph": 46, "peak_gust_mph": 49.2, "forecast_hour": 2, "valid_time": "2026-10-03T20:00:00Z", "fill_color": "#f1c40f", "area_deg2": 0.0075}}, {"type": "Feature", "geometry": {"type": "Polygon", "coordinates": [[[-96.32047973425452, 27.61312299999965], [-96.32047973425452, 27.56312299999965], [-96.27047973425451, 27.56312299999965], [-96.27047973425451, 27.61312299999965], [-96.32047973425452, 27.61312299999965]]]}, "properties": {"hazard_class": "wind_advisory", "threshold_mph": 46, "peak_gust_mph": 48.0, "forecast_hour": 4, "valid_time": "2026-10-03T22:00:00Z", "fill_color": "#f1c40f", "area_deg2": 0.0025}}, {"type": "Feature", "geometry": {"type": "Polygon", "coordinates": [[[-74.6704797342496, 26.513122999999634], [-74.6704797342496, 26.463122999999634], [-74.62047973424959, 26.463122999999634], [-74.62047973424959, 26.513122999999634], [-74.6704797342496, 26.513122999999634]]]}, "properties": {"hazard_class": "wind_advisory", "threshold_mph": 46, "peak_gust_mph": 47.1, "forecast_hour": 4, "valid_time": "2026-10-03T22:00:00Z", "fill_color": "#f1c40f", "area_deg2": 0.0025}}, {"type": "Feature", "geometry": {"type": "Polygon", "coordinates": [[[-82.42047973425136, 29.913122999999683], [-82.42047973425136, 29.81312299999968], [-82.32047973425134, 29.81312299999968], [-82.32047973425134, 29.863122999999682], [-82.37047973425135, 29.863122999999682], [-82.37047973425135, 29.913122999999683], [-82.42047973425136, 29.913122999999683]]]}, "properties": {"hazard_class": "wind_advisory", "threshold_mph": 46, "peak_gust_mph": 52.5, "forecast_hour": 5, "valid_time": "2026-10-03T23:00:00Z", "fill_color": "#f1c40f", "area_deg2": 0.0075}}, {"type": "Feature", "geometry": {"type": "Polygon", "coordinates": [[[-95.42047973425431, 30.013122999999684], [-95.42047973425431, 29.963122999999683], [-95.3704797342543, 29.963122999999683], [-95.3704797342543, 30.013122999999684], [-95.42047973425431, 30.013122999999684]]]}, "properties": {"hazard_class": "wind_advisory", "threshold_mph": 46, "peak_gust_mph": 47.8, "forecast_hour": 6, "valid_time": "2026-10-04T00:00:00Z", "fill_color": "#f1c40f", "area_deg2": 0.0025}}, {"type": "Feature", "geometry": {"type": "Polygon", "coordinates": [[[-97.1204797342547, 26.16312299999963], [-97.1204797342547, 26.11312299999963], [-97.02047973425468, 26.11312299999963], [-97.02047973425468, 26.16312299999963], [-97.1204797342547, 26.16312299999963]]]}, "properties": {"hazard_class": "wind_advisory", "threshold_mph": 46, "peak_gust_mph": 50.0, "forecast_hour": 7, "valid_time": "2026-10-04T01:00:00Z", "fill_color": "#f1c40f", "area_deg2": 0.005}}, {"type": "Feature", "geometry": {"type": "Polygon", "coordinates": [[[-87.27047973425246, 45.3631229999999], [-87.27047973425246, 45.313122999999905], [-87.12047973425243, 45.313122999999905], [-87.12047973425243, 45.3631229999999], [-87.27047973425246, 45.3631229999999]]]}, "properties": {"hazard_class": "wind_advisory", "threshold_mph": 46, "peak_gust_mph": 47.9, "forecast_hour": 9, "valid_time": "2026-10-04T03:00:00Z", "fill_color": "#f1c40f", "area_deg2": 0.0075}}, {"type": "Feature", "geometry": {"type": "Polygon", "coordinates": [[[-108.87047973425737, 25.56312299999962], [-108.87047973425737, 25.51312299999962], [-108.77047973425735, 25.51312299999962], [-108.77047973425735, 25.56312299999962], [-108.87047973425737, 25.56312299999962]]]}, "properties": {"hazard_class": "wind_advisory", "threshold_mph": 46, "peak_gust_mph": 47.5, "forecast_hour": 9, "valid_time": "2026-10-04T03:00:00Z", "fill_color": "#f1c40f", "area_deg2": 0.005}}, {"type": "Feature", "geometry": {"type": "Polygon", "coordinates": [[[-108.72047973425734, 25.56312299999962], [-108.72047973425734, 25.46312299999962], [-108.5704797342573, 25.46312299999962], [-108.5704797342573, 25.51312299999962], [-108.62047973425732, 25.51312299999962], [-108.62047973425732, 25.56312299999962], [-108.72047973425734, 25.56312299999962]]]}, "properties": {"hazard_class": "wind_advisory", "threshold_mph": 46, "peak_gust_mph": 50.3, "forecast_hour": 9, "valid_time": "2026-10-04T03:00:00Z", "fill_color": "#f1c40f", "area_deg2": 0.0125}}, {"type": "Feature", "geometry": {"type": "Polygon", "coordinates": [[[-87.07047973425242, 26.563122999999635], [-87.07047973425242, 26.463122999999634], [-86.92047973425238, 26.463122999999634], [-86.92047973425238, 26.563122999999635], [-87.07047973425242, 26.563122999999635]]]}, "properties": {"hazard_class": "wind_advisory", "threshold_mph": 46, "peak_gust_mph": 51.8, "forecast_hour": 10, "valid_time": "2026-10-04T04:00:00Z", "fill_color": "#f1c40f", "area_deg2": 0.015}}, {"type": "Feature", "geometry": {"type": "Polygon", "coordinates": [[[-109.47047973425751, 25.56312299999962], [-109.47047973425751, 25.46312299999962], [-109.37047973425749, 25.46312299999962], [-109.37047973425749, 25.41312299999962], [-109.27047973425746, 25.41312299999962], [-109.27047973425746, 25.51312299999962], [-109.37047973425749, 25.51312299999962], [-109.37047973425749, 25.56312299999962], [-109.47047973425751, 25.56312299999962]]]}, "properties": {"hazard_class": "wind_advisory", "threshold_mph": 46, "peak_gust_mph": 57.4, "forecast_hour": 10, "valid_time": "2026-10-04T04:00:00Z", "fill_color": "#f1c40f", "area_deg2": 0.02}}, {"type": "Feature", "geometry": {"type": "Polygon", "coordinates": [[[-109.07047973425742, 25.313122999999617], [-109.07047973425742, 25.263122999999617], [-109.12047973425743, 25.263122999999617], [-109.12047973425743, 25.163122999999615], [-108.9704797342574, 25.163122999999615], [-108.9704797342574, 25.263122999999617], [-109.0204797342574, 25.263122999999617], [-109.0204797342574, 25.313122999999617], [-109.07047973425742, 25.313122999999617]]]}, "properties": {"hazard_class": "wind_advisory", "threshold_mph": 46, "peak_gust_mph": 51.4, "forecast_hour": 10, "valid_time": "2026-10-04T04:00:00Z", "fill_color": "#f1c40f", "area_deg2": 0.0175}}, {"type": "Feature", "geometry": {"type": "Polygon", "coordinates": [[[-105.97047973425671, 38.313122999999806], [-105.97047973425671, 38.2631229999998], [-105.9204797342567, 38.2631229999998], [-105.9204797342567, 38.313122999999806], [-105.97047973425671, 38.313122999999806]]]}, "properties": {"hazard_class": "wind_advisory", "threshold_mph": 46, "peak_gust_mph": 46.4, "forecast_hour": 11, "valid_time": "2026-10-04T05:00:00Z", "fill_color": "#f1c40f", "area_deg2": 0.0025}}, {"type": "Feature", "geometry": {"type": "Polygon", "coordinates": [[[-109.97047973425762, 32.713122999999726], [-109.97047973425762, 32.66312299999972], [-109.92047973425761, 32.66312299999972], [-109.92047973425761, 32.713122999999726], [-109.97047973425762, 32.713122999999726]]]}, "properties": {"hazard_class": "wind_advisory", "threshold_mph": 46, "peak_gust_mph": 50.1, "forecast_hour": 11, "valid_time": "2026-10-04T05:00:00Z", "fill_color": "#f1c40f", "area_deg2": 0.0025}}, {"type": "Feature", "geometry": {"type": "Polygon", "coordinates": [[[-110.87047973425783, 32.46312299999972], [-110.87047973425783, 32.36312299999972], [-110.82047973425782, 32.36312299999972], [-110.82047973425782, 32.46312299999972], [-110.87047973425783, 32.46312299999972]]]}, "properties": {"hazard_class": "wind_advisory", "threshold_mph": 46, "peak_gust_mph": 49.9, "forecast_hour": 11, "valid_time": "2026-10-04T05:00:00Z", "fill_color": "#f1c40f", "area_deg2": 0.005}}, {"type": "Feature", "geometry": {"type": "Polygon", "coordinates": [[[-86.72047973425234, 28.21312299999966], [-86.72047973425234, 28.163122999999658], [-86.67047973425232, 28.163122999999658], [-86.67047973425232, 28.21312299999966], [-86.72047973425234, 28.21312299999966]]]}, "properties": {"hazard_class": "wind_advisory", "threshold_mph": 46, "peak_gust_mph": 46.7, "forecast_hour": 11, "valid_time": "2026-10-04T05:00:00Z", "fill_color": "#f1c40f", "area_deg2": 0.0025}}, {"type": "Feature", "geometry": {"type": "Polygon", "coordinates": [[[-87.77047973425258, 27.66312299999965], [-87.77047973425258, 27.61312299999965], [-87.62047973425254, 27.61312299999965], [-87.62047973425254, 27.66312299999965], [-87.77047973425258, 27.66312299999965]]]}, "properties": {"hazard_class": "wind_advisory", "threshold_mph": 46, "peak_gust_mph": 53.4, "forecast_hour": 11, "valid_time": "2026-10-04T05:00:00Z", "fill_color": "#f1c40f", "area_deg2": 0.0075}}, {"type": "Feature", "geometry": {"type": "Polygon", "coordinates": [[[-109.8704797342576, 25.663122999999622], [-109.8704797342576, 25.61312299999962], [-109.92047973425761, 25.61312299999962], [-109.92047973425761, 25.46312299999962], [-109.97047973425762, 25.46312299999962], [-109.97047973425762, 25.363122999999618], [-109.8704797342576, 25.363122999999618], [-109.8704797342576, 25.41312299999962], [-109.82047973425759, 25.41312299999962], [-109.82047973425759, 25.663122999999622], [-109.8704797342576, 25.663122999999622]]]}, "properties": {"hazard_class": "wind_advisory", "threshold_mph": 46, "peak_gust_mph": 49.2, "forecast_hour": 11, "valid_time": "2026-10-04T05:00:00Z", "fill_color": "#f1c40f", "area_deg2": 0.03}}, {"type": "Feature", "geometry": {"type": "Polygon", "coordinates": [[[-109.8704797342576, 25.363122999999618], [-109.8704797342576, 25.313122999999617], [-109.77047973425758, 25.313122999999617], [-109.77047973425758, 25.363122999999618], [-109.8704797342576, 25.363122999999618]]]}, "properties": {"hazard_class": "wind_advisory", "threshold_mph": 46, "peak_gust_mph": 47.1, "forecast_hour": 11, "valid_time": "2026-10-04T05:00:00Z", "fill_color": "#f1c40f", "area_deg2": 0.005}}, {"type": "Feature", "geometry": {"type": "Polygon", "coordinates": [[[-109.62047973425754, 25.313122999999617], [-109.62047973425754, 25.263122999999617], [-109.52047973425752, 25.263122999999617], [-109.52047973425752, 25.313122999999617], [-109.62047973425754, 25.313122999999617]]]}, "properties": {"hazard_class": "wind_advisory", "threshold_mph": 46, "peak_gust_mph": 47.2, "forecast_hour": 11, "valid_time": "2026-10-04T05:00:00Z", "fill_color": "#f1c40f", "area_deg2": 0.005}}, {"type": "Feature", "geometry": {"type": "Polygon", "coordinates": [[[-109.82047973425759, 25.263122999999617], [-109.82047973425759, 25.213122999999616], [-109.77047973425758, 25.213122999999616], [-109.77047973425758, 25.263122999999617], [-109.82047973425759, 25.263122999999617]]]}, "properties": {"hazard_class": "wind_advisory", "threshold_mph": 46, "peak_gust_mph": 46.2, "forecast_hour": 11, "valid_time": "2026-10-04T05:00:00Z", "fill_color": "#f1c40f", "area_deg2": 0.0025}}, {"type": "Feature", "geometry": {"type": "Polygon", "coordinates": [[[-109.72047973425757, 25.163122999999615], [-109.72047973425757, 25.113122999999614], [-109.67047973425755, 25.113122999999614], [-109.67047973425755, 25.163122999999615], [-109.72047973425757, 25.163122999999615]]]}, "properties": {"hazard_class": "wind_advisory", "threshold_mph": 46, "peak_gust_mph": 46.1, "forecast_hour": 11, "valid_time": "2026-10-04T05:00:00Z", "fill_color": "#f1c40f", "area_deg2": 0.0025}}, {"type": "Feature", "geometry": {"type": "Polygon", "coordinates": [[[-85.82047973425213, 47.01312299999992], [-85.82047973425213, 46.963122999999925], [-85.87047973425214, 46.963122999999925], [-85.87047973425214, 46.91312299999993], [-85.72047973425211, 46.91312299999993], [-85.72047973425211, 46.963122999999925], [-85.57047973425207, 46.963122999999925], [-85.57047973425207, 47.01312299999992], [-85.82047973425213, 47.01312299999992]]]}, "properties": {"hazard_class": "wind_advisory", "threshold_mph": 46, "peak_gust_mph": 48.9, "forecast_hour": 12, "valid_time": "2026-10-04T06:00:00Z", "fill_color": "#f1c40f", "area_deg2": 0.02}}, {"type": "Feature", "geometry": {"type": "Polygon", "coordinates": [[[-86.1204797342522, 45.813122999999905], [-86.1204797342522, 45.71312299999991], [-86.07047973425219, 45.71312299999991], [-86.07047973425219, 45.76312299999991], [-86.02047973425218, 45.76312299999991], [-86.02047973425218, 45.813122999999905], [-86.1204797342522, 45.813122999999905]]]}, "properties": {"hazard_class": "wind_advisory", "threshold_mph": 46, "peak_gust_mph": 47.4, "forecast_hour": 12, "valid_time": "2026-10-04T06:00:00Z", "fill_color": "#f1c40f", "area_deg2": 0.0075}}, {"type": "Feature", "geometry": {"type": "Polygon", "coordinates": [[[-116.77047973425917, 33.813122999999734], [-116.77047973425917, 33.76312299999974], [-116.72047973425916, 33.76312299999974], [-116.72047973425916, 33.813122999999734], [-116.77047973425917, 33.813122999999734]]]}, "properties": {"hazard_class": "wind_advisory", "threshold_mph": 46, "peak_gust_mph": 46.2, "forecast_hour": 12, "valid_time": "2026-10-04T06:00:00Z", "fill_color": "#f1c40f", "area_deg2": 0.0025}}, {"type": "Feature", "geometry": {"type": "Polygon", "coordinates": [[[-109.97047973425762, 32.713122999999726], [-109.97047973425762, 32.61312299999972], [-109.8704797342576, 32.61312299999972], [-109.8704797342576, 32.66312299999972], [-109.92047973425761, 32.66312299999972], [-109.92047973425761, 32.713122999999726], [-109.97047973425762, 32.713122999999726]]]}, "properties": {"hazard_class": "wind_advisory", "threshold_mph": 46, "peak_gust_mph": 54.5, "forecast_hour": 12, "valid_time": "2026-10-04T06:00:00Z", "fill_color": "#f1c40f", "area_deg2": 0.0075}}, {"type": "Feature", "geometry": {"type": "Polygon", "coordinates": [[[-110.87047973425783, 32.51312299999972], [-110.87047973425783, 32.413122999999715], [-110.82047973425782, 32.413122999999715], [-110.82047973425782, 32.51312299999972], [-110.87047973425783, 32.51312299999972]]]}, "properties": {"hazard_class": "wind_advisory", "threshold_mph": 46, "peak_gust_mph": 47.9, "forecast_hour": 12, "valid_time": "2026-10-04T06:00:00Z", "fill_color": "#f1c40f", "area_deg2": 0.005}}, {"type": "Feature", "geometry": {"type": "Polygon", "coordinates": [[[-110.62047973425777, 32.21312299999971], [-110.62047973425777, 32.163122999999715], [-110.57047973425776, 32.163122999999715], [-110.57047973425776, 32.21312299999971], [-110.62047973425777, 32.21312299999971]]]}, "properties": {"hazard_class": "wind_advisory", "threshold_mph": 46, "peak_gust_mph": 46.2, "forecast_hour": 12, "valid_time": "2026-10-04T06:00:00Z", "fill_color": "#f1c40f", "area_deg2": 0.0025}}, {"type": "Feature", "geometry": {"type": "Polygon", "coordinates": [[[-86.52047973425229, 28.41312299999966], [-86.52047973425229, 28.31312299999966], [-86.62047973425231, 28.31312299999966], [-86.62047973425231, 28.26312299999966], [-86.47047973425228, 28.26312299999966], [-86.47047973425228, 28.21312299999966], [-86.42047973425227, 28.21312299999966], [-86.42047973425227, 28.36312299999966], [-86.47047973425228, 28.36312299999966], [-86.47047973425228, 28.41312299999966], [-86.52047973425229, 28.41312299999966]]]}, "properties": {"hazard_class": "wind_advisory", "threshold_mph": 46, "peak_gust_mph": 51.3, "forecast_hour": 12, "valid_time": "2026-10-04T06:00:00Z", "fill_color": "#f1c40f", "area_deg2": 0.02}}, {"type": "Feature", "geometry": {"type": "Polygon", "coordinates": [[[-85.97047973425217, 26.26312299999963], [-85.97047973425217, 26.21312299999963], [-85.92047973425215, 26.21312299999963], [-85.92047973425215, 26.26312299999963], [-85.97047973425217, 26.26312299999963]]]}, "properties": {"hazard_class": "wind_advisory", "threshold_mph": 46, "peak_gust_mph": 46.7, "forecast_hour": 12, "valid_time": "2026-10-04T06:00:00Z", "fill_color": "#f1c40f", "area_deg2": 0.0025}}, {"type": "Feature", "geometry": {"type": "Polygon", "coordinates": [[[-110.37047973425771, 25.363122999999618], [-110.37047973425771, 25.263122999999617], [-110.3204797342577, 25.263122999999617], [-110.3204797342577, 25.213122999999616], [-110.27047973425769, 25.213122999999616], [-110.27047973425769, 25.163122999999615], [-110.22047973425768, 25.163122999999615], [-110.22047973425768, 25.113122999999614], [-110.17047973425767, 25.113122999999614], [-110.17047973425767, 25.263122999999617], [-110.27047973425769, 25.263122999999617], [-110.27047973425769, 25.363122999999618], [-110.37047973425771, 25.363122999999618]]]}, "properties": {"hazard_class": "wind_advisory", "threshold_mph": 46, "peak_gust_mph": 53.4, "forecast_hour": 12, "valid_time": "2026-10-04T06:00:00Z", "fill_color": "#f1c40f", "area_deg2": 0.025}}]}